[{"OBJECT_NAME":"KINEIS-3A","OBJECT_ID":"2024-172D","EPOCH":"2026-03-09T19:23:40.391232","MEAN_MOTION":14.72337384,"ECCENTRICITY":0.00029157,"INCLINATION":98.0282,"RA_OF_ASC_NODE":159.903,"ARG_OF_PERICENTER":69.8112,"MEAN_ANOMALY":290.3409,"EPHEMERIS_TYPE":0,"CLASSIFICATION_TYPE":"U","NORAD_CAT_ID":61223,"ELEMENT_SET_NO":999,"REV_AT_EPOCH":7815,"BSTAR":0.00045890962,"MEAN_MOTION_DOT":2.854e-5,"MEAN_MOTION_DDOT":0},{"OBJECT_NAME":"ATLAS 28E R\/B","OBJECT_ID":"1990-031D","EPOCH":"2026-03-09T13:40:28.718976","MEAN_MOTION":14.80148972,"ECCENTRICITY":0.0058493,"INCLINATION":89.8623,"RA_OF_ASC_NODE":258.1521,"ARG_OF_PERICENTER":172.6422,"MEAN_ANOMALY":187.5674,"EPHEMERIS_TYPE":0,"CLASSIFICATION_TYPE":"U","NORAD_CAT_ID":20563,"ELEMENT_SET_NO":999,"REV_AT_EPOCH":35581,"BSTAR":0.00023423,"MEAN_MOTION_DOT":1.847e-5,"MEAN_MOTION_DDOT":0}]
